[
    {
        "Altitude(m)": 710076.2743277323,
        "Argument of Periapsis(deg)": 0.011390121186627068,
        "Eccentricity": 0.0,
        "Inclination(deg)": 45.0,
        "Latitude(deg)": -25.69539527051449,
        "Longitude(deg)": 90.63297075738957,
        "Mean Anomaly(deg)": -37.55768335251912,
        "RAAN(deg)": 219.98924805854182,
        "Satellite Name": "Constellation 1 987",
        "Satellite Number": 987,
        "Semi-Major Axis(m)": 7083131.272910544,
        "Time(s)": 190
    },
    {
        "Altitude(m)": 710062.4446941263,
        "Argument of Periapsis(deg)": 0.011450069192872472,
        "Eccentricity": 0.0,
        "Inclination(deg)": 45.0,
        "Latitude(deg)": -25.6575641258016,
        "Longitude(deg)": 90.68148286372393,
        "Mean Anomaly(deg)": -37.49698221226923,
        "RAAN(deg)": 219.9891914693762,
        "Satellite Name": "Constellation 1 987",
        "Satellite Number": 987,
        "Semi-Major Axis(m)": 7083131.272910544,
        "Time(s)": 191
    },
    {
        "Altitude(m)": 710048.6166667491,
        "Argument of Periapsis(deg)": 0.01151001719911788,
        "Eccentricity": 0.0,
        "Inclination(deg)": 45.0,
        "Latitude(deg)": -25.619713749110613,
        "Longitude(deg)": 90.72996191799126,
        "Mean Anomaly(deg)": -37.43628107201927,
        "RAAN(deg)": 219.98913488021066,
        "Satellite Name": "Constellation 1 987",
        "Satellite Number": 987,
        "Semi-Major Axis(m)": 7083131.272910544,
        "Time(s)": 192
    },
    {
        "Altitude(m)": 710034.7902927996,
        "Argument of Periapsis(deg)": 0.011569965205363285,
        "Eccentricity": 0.0,
        "Inclination(deg)": 45.0,
        "Latitude(deg)": -25.58184418413375,
        "Longitude(deg)": 90.7784078122893,
        "Mean Anomaly(deg)": -37.37557993176944,
        "RAAN(deg)": 219.9890782910451,
        "Satellite Name": "Constellation 1 987",
        "Satellite Number": 987,
        "Semi-Major Axis(m)": 7083131.272910544,
        "Time(s)": 193
    },
    {
        "Altitude(m)": 710020.965619459,
        "Argument of Periapsis(deg)": 0.01162991321160869,
        "Eccentricity": 0.0,
        "Inclination(deg)": 45.0,
        "Latitude(deg)": -25.543955474499448,
        "Longitude(deg)": 90.82682094300682,
        "Mean Anomaly(deg)": -37.314878791519554,
        "RAAN(deg)": 219.98902170187952,
        "Satellite Name": "Constellation 1 987",
        "Satellite Number": 987,
        "Semi-Major Axis(m)": 7083131.272910544,
        "Time(s)": 194
    },
    {
        "Altitude(m)": 710007.1426938863,
        "Argument of Periapsis(deg)": 0.011689861217854095,
        "Eccentricity": 0.0,
        "Inclination(deg)": 45.0,
        "Latitude(deg)": -25.50604766377299,
        "Longitude(deg)": 90.87520120224124,
        "Mean Anomaly(deg)": -37.254177651269615,
        "RAAN(deg)": 219.98896511271397,
        "Satellite Name": "Constellation 1 987",
        "Satellite Number": 987,
        "Semi-Major Axis(m)": 7083131.272910544,
        "Time(s)": 195
    },
    {
        "Altitude(m)": 709993.3215632346,
        "Argument of Periapsis(deg)": 0.0117498092240995,
        "Eccentricity": 0.0,
        "Inclination(deg)": 45.0,
        "Latitude(deg)": -25.4681207954565,
        "Longitude(deg)": 90.92354865018606,
        "Mean Anomaly(deg)": -37.193476511019725,
        "RAAN(deg)": 219.98890852354836,
        "Satellite Name": "Constellation 1 987",
        "Satellite Number": 987,
        "Semi-Major Axis(m)": 7083131.272910544,
        "Time(s)": 196
    },
    {
        "Altitude(m)": 709979.5022746167,
        "Argument of Periapsis(deg)": 0.011809757230344905,
        "Eccentricity": 0.0,
        "Inclination(deg)": 45.0,
        "Latitude(deg)": -25.430174912988765,
        "Longitude(deg)": 90.9718633470341,
        "Mean Anomaly(deg)": -37.13277537076979,
        "RAAN(deg)": 219.9888519343828,
        "Satellite Name": "Constellation 1 987",
        "Satellite Number": 987,
        "Semi-Major Axis(m)": 7083131.272910544,
        "Time(s)": 197
    },
    {
        "Altitude(m)": 709965.6848751452,
        "Argument of Periapsis(deg)": 0.011869705236590313,
        "Eccentricity": 0.0,
        "Inclination(deg)": 45.0,
        "Latitude(deg)": -25.392210059745654,
        "Longitude(deg)": 91.02014535297631,
        "Mean Anomaly(deg)": -37.072074230519924,
        "RAAN(deg)": 219.98879534521726,
        "Satellite Name": "Constellation 1 987",
        "Satellite Number": 987,
        "Semi-Major Axis(m)": 7083131.272910544,
        "Time(s)": 198
    },
    {
        "Altitude(m)": 709951.8694118995,
        "Argument of Periapsis(deg)": 0.011929653242835719,
        "Eccentricity": 0.0,
        "Inclination(deg)": 45.0,
        "Latitude(deg)": -25.35422627903998,
        "Longitude(deg)": 91.06839472820232,
        "Mean Anomaly(deg)": -37.01137309027007,
        "RAAN(deg)": 219.98873875605167,
        "Satellite Name": "Constellation 1 987",
        "Satellite Number": 987,
        "Semi-Major Axis(m)": 7083131.272910544,
        "Time(s)": 199
    }
]